OBJECT_NAME,OBJECT_ID,EPOCH,MEAN_MOTION,ECCENTRICITY,INCLINATION,RA_OF_ASC_NODE,ARG_OF_PERICENTER,MEAN_ANOMALY,EPHEMERIS_TYPE,CLASSIFICATION_TYPE,NORAD_CAT_ID,ELEMENT_SET_NO,REV_AT_EPOCH,BSTAR,MEAN_MOTION_DOT,MEAN_MOTION_DDOT
STARLINK-34618,2025-147R,2026-06-29T23:42:06.602688,15.34414923,.00005826,53.1599,79.1152,75.2091,284.8976,0,U,64770,999,5590,.85993834E-3,.28804E-3,0
STARLINK-34541,2025-147S,2026-06-30T00:06:20.909088,15.34407177,.00011608,53.1596,79.2201,81.3514,278.7620,0,U,64771,999,5590,.66855517E-3,.22284E-3,0
STARLINK-34652,2025-147T,2026-06-30T00:15:26.419680,15.34421497,.00011165,53.1577,79.2578,74.7691,285.3435,0,U,64772,999,5597,.94230144E-3,.31617E-3,0
STARLINK-34612,2025-147U,2026-06-30T06:12:26.191008,15.34415671,.00009496,53.1593,77.9617,79.9841,280.1269,0,U,64773,999,5601,.10298571E-2,.34597E-3,0
STARLINK-34621,2025-147V,2026-06-30T00:05:18.826368,15.30224245,.00011187,53.1607,81.3403,80.9842,279.1285,0,U,64774,999,5587,.11575911E-2,.34108E-3,0
STARLINK-34657,2025-147W,2026-06-30T00:30:35.196480,15.34407260,.00009193,53.1584,79.3225,109.4048,250.7054,0,U,64775,999,5597,.91592501E-3,.30704E-3,0
STARLINK-34637,2025-147X,2026-06-29T23:14:58.228800,15.34401546,.00013779,53.1594,79.7041,107.4391,252.6762,0,U,64776,999,5589,.66842895E-3,.22276E-3,0
STARLINK-34547,2025-147Y,2026-06-29T23:51:11.886912,15.34398639,.00006337,53.1587,79.1502,81.8710,278.2365,0,U,64777,999,5591,.72595366E-3,.2423E-3,0
STARLINK-34537,2025-147Z,2026-06-29T22:15:19.741248,15.30206725,.0000609,53.1600,58.5381,40.4647,319.6399,0,U,64778,999,5628,.81454151E-3,.23848E-3,0
STARLINK-34585,2025-147AA,2026-06-29T23:11:56.478624,15.34409344,.00014665,53.1599,79.6905,153.5373,206.5704,0,U,64779,999,5591,.10027804E-2,.33667E-3,0
STARLINK-34491,2025-147AB,2026-06-29T23:48:10.625760,15.34419439,.00011053,53.1602,79.1377,89.6802,270.4327,0,U,64780,999,5597,.74543904E-3,.24909E-3,0
STARLINK-34582,2025-147AC,2026-06-29T23:39:04.760928,15.34402319,.0001003,53.1593,79.0938,88.3508,271.7610,0,U,64781,999,5590,.64556711E-3,.21499E-3,0
STARLINK-34482,2025-147AD,2026-06-30T00:36:38.575872,15.34415734,.00012117,53.1592,79.3438,119.2835,240.8289,0,U,64782,999,5601,.74319736E-3,.2483E-3,0
STARLINK-34629,2025-150A,2026-06-30T11:22:35.609664,14.98331514,.00039199,69.9995,209.9742,266.8799,93.1912,0,U,64790,999,5341,.21963469E-3,.2529E-4,0
STARLINK-34697,2025-150B,2026-06-30T11:28:23.091456,14.98325533,.00041249,69.9993,209.9827,265.5975,94.4713,0,U,64791,999,5341,.31147219E-3,.3625E-4,0
STARLINK-34632,2025-150C,2026-06-30T10:28:31.143648,14.98338278,.0004195,69.9994,210.1199,266.7910,93.2770,0,U,64792,999,5340,.27227836E-3,.3158E-4,0
STARLINK-34693,2025-150D,2026-06-30T09:22:27.160032,14.98337471,.00039909,69.9993,210.4773,266.7204,93.3499,0,U,64793,999,5339,.27354283E-3,.3173E-4,0
STARLINK-34666,2025-150E,2026-06-30T10:58:20.851392,14.98337471,.00038474,69.9994,210.3145,265.4192,94.6528,0,U,64794,999,5340,.25450451E-3,.2946E-4,0
STARLINK-34567,2025-150F,2026-06-30T11:10:19.930944,14.98334235,.00043112,69.9991,209.9404,266.8341,93.2325,0,U,64795,999,5341,.19884142E-3,.2281E-4,0
STARLINK-34646,2025-150G,2026-06-30T12:10:42.023712,14.98332779,.00037224,69.9995,210.0801,264.0462,96.0273,0,U,64796,999,5430,.4213578E-3,.4939E-4,0
STARLINK-34641,2025-150H,2026-06-30T11:40:25.087008,14.98315111,.00031007,70.0009,210.0120,268.8855,91.1949,0,U,64797,999,5424,.26710612E-3,.3094E-4,0
STARLINK-34649,2025-150J,2026-06-30T12:10:27.543072,14.98332945,.0004027,69.9994,210.0872,268.1722,91.8976,0,U,64798,999,5430,.32613115E-3,.3801E-4,0
STARLINK-34662,2025-150K,2026-06-30T12:46:42.263904,14.98336364,.00038829,69.9992,209.7743,266.6446,93.4269,0,U,64799,999,5342,.25155604E-3,.291E-4,0
STARLINK-34660,2025-150L,2026-06-30T11:34:22.478304,14.98336095,.00041183,69.9997,209.9984,266.3175,93.7513,0,U,64800,999,5341,.23679877E-3,.2734E-4,0
STARLINK-34604,2025-150M,2026-06-30T11:52:24.431808,14.98340266,.00035064,69.9996,210.0397,267.3274,92.7484,0,U,64801,999,5341,.35441939E-3,.414E-4,0
STARLINK-34658,2025-150N,2026-06-30T10:52:20.312832,14.98335685,.00036278,69.9994,210.2932,262.8376,97.2370,0,U,64802,999,5340,.17586727E-3,.2006E-4,0
STARLINK-34620,2025-150P,2026-06-30T10:52:34.652640,14.98324997,.00040017,69.9993,210.2929,269.4112,90.6588,0,U,64803,999,5340,.30205678E-3,.3513E-4,0
STARLINK-34633,2025-150Q,2026-06-30T11:46:38.032608,14.98337693,.00041211,69.9994,210.0225,265.9787,94.0901,0,U,64804,999,5341,.2861685E-3,.3324E-4,0
STARLINK-34624,2025-150R,2026-06-30T10:40:20.340768,14.98325898,.00038635,69.9991,210.2674,268.4799,91.5917,0,U,64805,999,5340,.14212847E-3,.1603E-4,0
STARLINK-34664,2025-150S,2026-06-30T12:40:25.954752,14.98381848,.0003748,69.9993,209.7541,275.9190,84.1542,0,U,64806,999,5342,.11905363E-2,.14161E-3,0
