STARLINK-34618          
1 64770U 25147R   26180.98757642  .00028804  00000+0  85994-3 0  9997
2 64770  53.1599  79.1152 0000582  75.2091 284.8976 15.34414923 55901
STARLINK-34541          
1 64771U 25147S   26181.00440867  .00022284  00000+0  66856-3 0  9992
2 64771  53.1596  79.2201 0001160  81.3514 278.7620 15.34407177 55907
STARLINK-34652          
1 64772U 25147T   26181.01072245  .00031617  00000+0  94230-3 0  9992
2 64772  53.1577  79.2578 0001116  74.7691 285.3435 15.34421497 55973
STARLINK-34612          
1 64773U 25147U   26181.25863647  .00034597  00000+0  10299-2 0  9995
2 64773  53.1593  77.9617 0000949  79.9841 280.1269 15.34415671 56019
STARLINK-34621          
1 64774U 25147V   26181.00369012  .00034108  00000+0  11576-2 0  9993
2 64774  53.1607  81.3403 0001118  80.9842 279.1285 15.30224245 55870
STARLINK-34657          
1 64775U 25147W   26181.02124070  .00030704  00000+0  91593-3 0  9995
2 64775  53.1584  79.3225 0000919 109.4048 250.7054 15.34407260 55971
STARLINK-34637          
1 64776U 25147X   26180.96872950  .00022276  00000+0  66843-3 0  9990
2 64776  53.1594  79.7041 0001377 107.4391 252.6762 15.34401546 55890
STARLINK-34547          
1 64777U 25147Y   26180.99388758  .00024230  00000+0  72595-3 0  9995
2 64777  53.1587  79.1502 0000633  81.8710 278.2365 15.34398639 55917
STARLINK-34537          
1 64778U 25147Z   26180.92731182  .00023848  00000+0  81454-3 0  9990
2 64778  53.1600  58.5381 0000609  40.4647 319.6399 15.30206725 56281
STARLINK-34585          
1 64779U 25147AA  26180.96662591  .00033667  00000+0  10028-2 0  9990
2 64779  53.1599  79.6905 0001466 153.5373 206.5704 15.34409344 55918
STARLINK-34491          
1 64780U 25147AB  26180.99178965  .00024909  00000+0  74544-3 0  9995
2 64780  53.1602  79.1377 0001105  89.6802 270.4327 15.34419439 55972
STARLINK-34582          
1 64781U 25147AC  26180.98547177  .00021499  00000+0  64557-3 0  9994
2 64781  53.1593  79.0938 0001003  88.3508 271.7610 15.34402319 55901
STARLINK-34482          
1 64782U 25147AD  26181.02544648  .00024830  00000+0  74320-3 0  9992
2 64782  53.1592  79.3438 0001211 119.2835 240.8289 15.34415734 56014
STARLINK-34629          
1 64790U 25150A   26181.47402326  .00002529  00000+0  21963-3 0  9996
2 64790  69.9995 209.9742 0003919 266.8799  93.1912 14.98331514 53414
STARLINK-34697          
1 64791U 25150B   26181.47804504  .00003625  00000+0  31147-3 0  9994
2 64791  69.9993 209.9827 0004124 265.5975  94.4713 14.98325533 53415
STARLINK-34632          
1 64792U 25150C   26181.43647157  .00003158  00000+0  27228-3 0  9996
2 64792  69.9994 210.1199 0004195 266.7910  93.2770 14.98338278 53402
STARLINK-34693          
1 64793U 25150D   26181.39059213  .00003173  00000+0  27354-3 0  9999
2 64793  69.9993 210.4773 0003990 266.7204  93.3499 14.98337471 53392
STARLINK-34666          
1 64794U 25150E   26181.45718578  .00002946  00000+0  25450-3 0  9995
2 64794  69.9994 210.3145 0003847 265.4192  94.6528 14.98337471 53408
STARLINK-34567          
1 64795U 25150F   26181.46550846  .00002281  00000+0  19884-3 0  9995
2 64795  69.9991 209.9404 0004311 266.8341  93.2325 14.98334235 53412
STARLINK-34646          
1 64796U 25150G   26181.50743083  .00004939  00000+0  42136-3 0  9996
2 64796  69.9995 210.0801 0003722 264.0462  96.0273 14.98332779 54303
STARLINK-34641          
1 64797U 25150H   26181.48640147  .00003094  00000+0  26711-3 0  9993
2 64797  70.0009 210.0120 0003100 268.8855  91.1949 14.98315111 54245
STARLINK-34649          
1 64798U 25150J   26181.50726323  .00003801  00000+0  32613-3 0  9992
2 64798  69.9994 210.0872 0004027 268.1722  91.8976 14.98332945 54303
STARLINK-34662          
1 64799U 25150K   26181.53243361  .00002910  00000+0  25156-3 0  9996
2 64799  69.9992 209.7743 0003882 266.6446  93.4269 14.98336364 53422
STARLINK-34660          
1 64800U 25150L   26181.48220461  .00002734  00000+0  23680-3 0  9993
2 64800  69.9997 209.9984 0004118 266.3175  93.7513 14.98336095 53413
STARLINK-34604          
1 64801U 25150M   26181.49472722  .00004140  00000+0  35442-3 0  9996
2 64801  69.9996 210.0397 0003506 267.3274  92.7484 14.98340266 53416
STARLINK-34658          
1 64802U 25150N   26181.45301288  .00002006  00000+0  17587-3 0  9990
2 64802  69.9994 210.2932 0003627 262.8376  97.2370 14.98335685 53401
STARLINK-34620          
1 64803U 25150P   26181.45317885  .00003513  00000+0  30206-3 0  9998
2 64803  69.9993 210.2929 0004001 269.4112  90.6588 14.98324997 53407
STARLINK-34633          
1 64804U 25150Q   26181.49071797  .00003324  00000+0  28617-3 0  9995
2 64804  69.9994 210.0225 0004121 265.9787  94.0901 14.98337693 53413
STARLINK-34624          
1 64805U 25150R   26181.44467987  .00001603  00000+0  14213-3 0  9996
2 64805  69.9991 210.2674 0003863 268.4799  91.5917 14.98325898 53406
STARLINK-34664          
1 64806U 25150S   26181.52807818  .00014161  00000+0  11905-2 0  9994
2 64806  69.9993 209.7541 0003748 275.9190  84.1542 14.98381848 53426
